NORAD_CAT_ID,OBJECT_NAME,OBJECT_TYPE,EPOCH,MEAN_MOTION,ECCENTRICITY,INCLINATION,RA_OF_ASC_NODE,ARG_OF_PERICENTER,MEAN_ANOMALY,BSTAR,MEAN_MOTION_DOT,MEAN_MOTION_DDOT,TLE_LINE0,TLE_LINE1,TLE_LINE2,SEMIMAJOR_AXIS,PERIOD,APOGEE,PERIGEE,DECAYED
54074.0,STARLINK-5192,PAYLOAD,2024-07-18 13:50:01,15.08847304,0.0001422,53.218,153.2645,102.8245,257.2906,0.00018632,2.679e-05,0.0,0 STARLINK-5192,1 54074U 22136Z   24200.57640531  .00002679  00000-0  18632-3 0  9990,2 54074  53.2180 153.2645 0001422 102.8245 257.2906 15.08847304 96408,6917.858,95.437,540.707,538.739,0.0
54074.0,STARLINK-5192,PAYLOAD,2024-07-19 04:08:31,15.08833027,0.0001443,53.2166,150.5849,84.4089,275.7068,4.8767e-05,4.88e-06,0.0,0 STARLINK-5192,1 54074U 22136Z   24201.17258206  .00000488  00000-0  48767-4 0  9990,2 54074  53.2166 150.5849 0001443  84.4089 275.7068 15.08833027 96975,6917.902,95.438,540.765,538.768,0.0
54074.0,STARLINK-5192,PAYLOAD,2024-07-19 13:40:48,15.08853932,0.0001476,53.2171,148.7998,76.458,283.6576,0.00015558,2.19e-05,0.0,0 STARLINK-5192,1 54074U 22136Z   24201.57000517  .00002190  00000-0  15558-3 0  9997,2 54074  53.2171 148.7998 0001476  76.4580 283.6576 15.08853932 96551,6917.838,95.437,540.724,538.682,0.0
54074.0,STARLINK-5192,PAYLOAD,2024-07-20 03:59:17,15.0884008,0.0001356,53.2157,146.124,82.1421,277.9725,6.1331e-05,6.88e-06,0.0,0 STARLINK-5192,1 54074U 22136Z   24202.16617501  .00000688  00000-0  61331-4 0  9991,2 54074  53.2157 146.1240 0001356  82.1421 277.9725 15.08840080 97128,6917.88,95.438,540.683,538.807,0.0
54074.0,STARLINK-5192,PAYLOAD,2024-07-20 13:31:35,15.08853392,0.0001398,53.2164,144.3426,89.365,270.7502,0.00025511,3.776e-05,0.0,0 STARLINK-5192,1 54074U 22136Z   24202.56360820  .00003776  00000-0  25511-3 0  9994,2 54074  53.2164 144.3426 0001398  89.3650 270.7502 15.08853392 96708,6917.839,95.437,540.672,538.737,0.0
54074.0,STARLINK-5192,PAYLOAD,2024-07-21 05:25:27,15.08838624,0.0001384,53.2154,141.3622,109.0977,251.0165,0.0001002,1.307e-05,0.0,0 STARLINK-5192,1 54074U 22136Z   24203.22601530  .00001307  00000-0  10020-3 0  9991,2 54074  53.2154 141.3622 0001384 109.0977 251.0165 15.08838624 97281,6917.885,95.438,540.707,538.792,0.0
54074.0,STARLINK-5192,PAYLOAD,2024-07-22 02:05:27,15.08871211,0.0001382,53.2153,137.4992,112.9547,247.1591,0.0013376,0.00021082,0.0,0 STARLINK-5192,1 54074U 22136Z   24204.08712944  .00021082  00000-0  13376-2 0  9996,2 54074  53.2153 137.4992 0001382 112.9547 247.1591 15.08871211 97413,6917.785,95.436,540.606,538.694,0.0
54074.0,STARLINK-5192,PAYLOAD,2024-07-22 22:45:28,15.08867677,0.0001423,53.2158,133.6333,113.743,246.3712,0.0010056,0.00015764,0.0,0 STARLINK-5192,1 54074U 22136Z   24204.94824595  .00015764  00000-0  10056-2 0  9999,2 54074  53.2158 133.6333 0001423 113.7430 246.3712 15.08867677 97069,6917.796,95.436,540.645,538.676,0.0
54074.0,STARLINK-5192,PAYLOAD,2024-07-23 01:56:15,15.08836393,0.0001229,53.2156,133.041,75.3878,284.725,0.001302,0.00020492,0.0,0 STARLINK-5192,1 54074U 22136Z   24205.08072946  .00020492  00000-0  13020-2 0  9998,2 54074  53.2156 133.0410 0001229  75.3878 284.7250 15.08836393 97569,6917.891,95.438,540.607,538.906,0.0
54074.0,STARLINK-5192,PAYLOAD,2024-07-23 22:36:16,15.08826063,0.0001563,53.2159,129.168,108.2609,251.8553,0.0008197,0.00012777,0.0,0 STARLINK-5192,1 54074U 22136Z   24205.94185971  .00012777  00000-0  81970-3 0  9993,2 54074  53.2159 129.1680 0001563 108.2609 251.8553 15.08826063 97212,6917.923,95.438,540.869,538.707,0.0
54074.0,STARLINK-5192,PAYLOAD,2024-07-24 04:57:49,15.088173,0.0001347,53.2158,127.9835,95.263,264.8516,-0.000192,-3.34e-05,0.0,0 STARLINK-5192,1 54074U 22136Z   24206.20682605 -.00003340  00000-0 -19200-3 0  9994,2 54074  53.2158 127.9835 0001347  95.2630 264.8516 15.08817300 97732,6917.95,95.439,540.747,538.883,0.0
54074.0,STARLINK-5192,PAYLOAD,2024-07-24 22:27:04,15.08837453,0.0001049,53.2144,124.7175,86.9551,273.1561,0.00021843,3.19e-05,0.0,0 STARLINK-5192,1 54074U 22136Z   24206.93546465  .00003190  00000-0  21843-3 0  9994,2 54074  53.2144 124.7175 0001049  86.9551 273.1561 15.08837453 97360,6917.888,95.438,540.479,539.027,0.0
54074.0,STARLINK-5192,PAYLOAD,2024-07-25 01:37:50,15.08847581,0.0001238,53.2152,124.1223,96.7102,263.4031,0.00050213,7.714e-05,0.0,0 STARLINK-5192,1 54074U 22136Z   24207.06794270  .00007714  00000-0  50213-3 0  9997,2 54074  53.2152 124.1223 0001238  96.7102 263.4031 15.08847581 97860,6917.857,95.437,540.579,538.866,0.0
54074.0,STARLINK-5192,PAYLOAD,2024-07-25 22:17:50,15.08844798,0.0001582,53.2158,120.2513,115.3109,244.8047,0.00025735,3.811e-05,0.0,0 STARLINK-5192,1 54074U 22136Z   24207.92906249  .00003811  00000-0  25735-3 0  9998,2 54074  53.2158 120.2513 0001582 115.3109 244.8047 15.08844798 97511,6917.866,95.437,540.825,538.636,0.0
54074.0,STARLINK-5192,PAYLOAD,2024-07-26 04:39:23,15.08837853,0.0001328,53.2155,119.0653,105.9605,254.1534,0.00022119,3.234e-05,0.0,0 STARLINK-5192,1 54074U 22136Z   24208.19402636  .00003234  00000-0  22119-3 0  9991,2 54074  53.2155 119.0653 0001328 105.9605 254.1534 15.08837853 98030,6917.887,95.438,540.671,538.833,0.0
54074.0,STARLINK-5192,PAYLOAD,2024-07-26 11:00:55,15.08850544,0.0001345,53.2165,117.8777,108.0568,252.057,0.00029275,4.376e-05,0.0,0 STARLINK-5192,1 54074U 22136Z   24208.45897804  .00004376  00000-0  29275-3 0  9993,2 54074  53.2165 117.8777 0001345 108.0568 252.0570 15.08850544 98078,6917.848,95.437,540.644,538.783,0.0
54074.0,STARLINK-5192,PAYLOAD,2024-07-27 10:51:42,15.08848999,0.0001235,53.2178,113.4161,79.8061,280.3071,7.3239e-05,8.78e-06,0.0,0 STARLINK-5192,1 54074U 22136Z   24209.45257362  .00000878  00000-0  73239-4 0  9996,2 54074  53.2178 113.4161 0001235  79.8061 280.3071 15.08848999 98220,6917.853,95.437,540.572,538.864,0.0
54074.0,STARLINK-5192,PAYLOAD,2024-07-27 21:59:25,15.08821102,0.0001704,53.217,111.3357,88.8579,271.2609,-8.3716e-05,-1.619e-05,0.0,0 STARLINK-5192,1 54074U 22136Z   24209.91627016 -.00001619  00000-0 -83716-4 0  9991,2 54074  53.2170 111.3357 0001704  88.8579 271.2609 15.08821102 97818,6917.938,95.439,540.982,538.624,0.0
54074.0,STARLINK-5192,PAYLOAD,2024-07-28 01:10:11,15.08831033,0.000139,53.2149,110.738,82.5455,277.5695,-0.00010157,-1.904e-05,0.0,0 STARLINK-5192,1 54074U 22136Z   24210.04874438 -.00001904  00000-0 -10157-3 0  9994,2 54074  53.2149 110.7380 0001390  82.5455 277.5695 15.08831033 98312,6917.908,95.438,540.734,538.811,0.0
54074.0,STARLINK-5192,PAYLOAD,2024-07-28 21:50:12,15.08836484,0.0001368,53.2147,106.8742,84.0526,276.0622,0.00015438,2.17e-05,0.0,0 STARLINK-5192,1 54074U 22136Z   24210.90987029  .00002170  00000-0  15438-3 0  9991,2 54074  53.2147 106.8742 0001368  84.0526 276.0622 15.08836484 97968,6917.891,95.438,540.703,538.81,0.0
54074.0,STARLINK-5192,PAYLOAD,2024-07-29 10:33:17,15.0884896,0.0001683,53.2141,104.4918,94.5153,265.6031,0.0006721,0.00010427,0.0,0 STARLINK-5192,1 54074U 22136Z   24211.43978762  .00010427  00000-0  67210-3 0  9993,2 54074  53.2141 104.4918 0001683  94.5153 265.6031 15.08848960 98526,6917.853,95.437,540.882,538.554,0.0
54074.0,STARLINK-5192,PAYLOAD,2024-07-29 21:40:59,15.08845179,0.0001856,53.2157,102.408,110.0668,250.0524,0.00036278,5.491e-05,0.0,0 STARLINK-5192,1 54074U 22136Z   24211.90346748  .00005491  00000-0  36278-3 0  9993,2 54074  53.2157 102.4080 0001856 110.0668 250.0524 15.08845179 98599,6917.865,95.437,541.014,538.446,0.0
54074.0,STARLINK-5192,PAYLOAD,2024-07-29 23:16:22,15.08842533,0.000172,53.2165,102.1152,86.134,273.9849,0.00029219,4.366e-05,0.0,0 STARLINK-5192,1 54074U 22136Z   24211.96971042  .00004366  00000-0  29219-3 0  9997,2 54074  53.2165 102.1152 0001720  86.1340 273.9849 15.08842533 98129,6917.873,95.437,540.928,538.548,0.0
54074.0,STARLINK-5192,PAYLOAD,2024-07-30 23:07:09,15.0884573,0.0001559,53.2167,97.6546,86.0272,274.0898,0.00011387,1.525e-05,0.0,0 STARLINK-5192,1 54074U 22136Z   24212.96330584  .00001525  00000-0  11387-3 0  9999,2 54074  53.2167  97.6546 0001559  86.0272 274.0898 15.08845730 98273,6917.863,95.437,540.806,538.649,0.0
54074.0,STARLINK-5192,PAYLOAD,2024-07-31 21:22:33,15.0883173,0.0001474,53.2163,93.4918,102.8591,257.2566,-6.3789e-05,-1.303e-05,0.0,0 STARLINK-5192,1 54074U 22136Z   24213.89067068 -.00001303  00000-0 -63789-4 0  9996,2 54074  53.2163  93.4918 0001474 102.8591 257.2566 15.08831730 98891,6917.906,95.438,540.79,538.751,0.0
54074.0,STARLINK-5192,PAYLOAD,2024-08-01 21:13:20,15.08850234,0.0001296,53.2158,89.0324,108.9253,251.1879,0.00034715,5.243e-05,0.0,0 STARLINK-5192,1 54074U 22136Z   24214.88426555  .00005243  00000-0  34715-3 0  9997,2 54074  53.2158  89.0324 0001296 108.9253 251.1879 15.08850234 99049,6917.849,95.437,540.611,538.818,0.0
54074.0,STARLINK-5192,PAYLOAD,2024-08-01 22:48:43,15.08851603,0.0001228,53.216,88.7361,107.9491,252.1635,0.00044293,6.771e-05,0.0,0 STARLINK-5192,1 54074U 22136Z   24214.95050592  .00006771  00000-0  44293-3 0  9998,2 54074  53.2160  88.7361 0001228 107.9491 252.1635 15.08851603 98576,6917.845,95.437,540.559,538.86,0.0
54074.0,STARLINK-5192,PAYLOAD,2024-08-02 08:21:01,15.08872455,0.0001217,53.2163,86.9502,106.9877,253.1248,0.00085918,0.00013424,0.0,0 STARLINK-5192,1 54074U 22136Z   24215.34793732  .00013424  00000-0  85918-3 0  9994,2 54074  53.2163  86.9502 0001217 106.9877 253.1248 15.08872455 99111,6917.781,95.436,540.488,538.804,0.0
54074.0,STARLINK-5192,PAYLOAD,2024-08-02 14:42:35,15.08848201,0.0002829,53.2161,85.7619,84.527,275.6045,0.00011767,1.585e-05,0.0,0 STARLINK-5192,1 54074U 22136Z   24215.61290723  .00001585  00000-0  11767-3 0  9992,2 54074  53.2161  85.7619 0002829  84.5270 275.6045 15.08848201 98679,6917.855,95.437,541.677,537.763,0.0
54074.0,STARLINK-5192,PAYLOAD,2024-08-02 21:04:07,15.08825145,0.0001398,53.2159,84.5719,91.492,268.6232,-0.00038717,-6.442e-05,0.0,0 STARLINK-5192,1 54074U 22136Z   24215.87786972 -.00006442  00000-0 -38717-3 0  9999,2 54074  53.2159  84.5719 0001398  91.4920 268.6232 15.08825145 99193,6917.926,95.438,540.758,538.824,0.0
